[{"OBJECT_NAME":"STARLINK-1958","OBJECT_ID":"2021-009M","EPOCH":"2026-03-09T21:30:00.106848","MEAN_MOTION":15.67474201,"ECCENTRICITY":0.00053899,"INCLINATION":53.0457,"RA_OF_ASC_NODE":320.4715,"ARG_OF_PERICENTER":347.5018,"MEAN_ANOMALY":12.5863,"EPHEMERIS_TYPE":0,"CLASSIFICATION_TYPE":"U","NORAD_CAT_ID":47559,"ELEMENT_SET_NO":999,"REV_AT_EPOCH":28167,"BSTAR":0.00087609407,"MEAN_MOTION_DOT":0.00097472,"MEAN_MOTION_DDOT":0},{"OBJECT_NAME":"STARLINK-11376 [DTC]","OBJECT_ID":"2024-187B","EPOCH":"2026-03-09T21:34:34.044096","MEAN_MOTION":15.69707148,"ECCENTRICITY":0.00010146,"INCLINATION":53.1594,"RA_OF_ASC_NODE":295.1889,"ARG_OF_PERICENTER":74.2128,"MEAN_ANOMALY":285.9001,"EPHEMERIS_TYPE":0,"CLASSIFICATION_TYPE":"U","NORAD_CAT_ID":61575,"ELEMENT_SET_NO":999,"REV_AT_EPOCH":8073,"BSTAR":-1.5493469e-5,"MEAN_MOTION_DOT":-2.465e-5,"MEAN_MOTION_DDOT":0}]
